{"type":"Feature","properties":{"MUN":"NEPTUNE CITY BORO","COUNTY":"MONMOUTH","MUN_LABEL":"Neptune City Borough","MUN_TYPE":"Borough","NAME":"Neptune City Borough","GNIS_NAME":"Borough of Neptune City"},"geometry":{"type":"Polygon","coordinates":[[[-74.037085,40.2061165],[-74.0350863,40.2056488],[-74.0344338,40.2054961],[-74.0344172,40.2054925],[-74.0342819,40.2054629],[-74.0339662,40.2053937],[-74.033966,40.2053937],[-74.0337856,40.2053542],[-74.0335118,40.2052942],[-74.0333608,40.2052611],[-74.0330682,40.2051971],[-74.0330248,40.2051876],[-74.0330169,40.205185],[-74.0328074,40.2051167],[-74.0325632,40.2050576],[-74.0323761,40.2050124],[-74.0321879,40.2049669],[-74.0319975,40.2049208],[-74.0318277,40.2048797],[-74.0316579,40.2048386],[-74.0314881,40.2047976],[-74.0311491,40.2047155],[-74.0308917,40.2046533],[-74.0306344,40.204591],[-74.0304628,40.2045495],[-74.0303655,40.204526],[-74.0301196,40.2044665],[-74.0297765,40.2043834],[-74.0296013,40.2043412],[-74.0294265,40.2043],[-74.0292567,40.20426],[-74.0290863,40.2042199],[-74.0289142,40.2041793],[-74.0287448,40.2041394],[-74.028571,40.2040984],[-74.0283987,40.2040578],[-74.0280557,40.203977],[-74.0278831,40.2039363],[-74.0275554,40.2038591],[-74.0271339,40.2037597],[-74.0269262,40.2037108],[-74.0266711,40.2036507],[-74.0263899,40.2035844],[-74.0262141,40.203543],[-74.0260363,40.203501],[-74.0258634,40.2034603],[-74.0256898,40.2034194],[-74.0255189,40.2033791],[-74.02535,40.2033393],[-74.0251781,40.2032988],[-74.0251764,40.2032984],[-74.0249469,40.2032443],[-74.0249141,40.2032364],[-74.0248367,40.2032177],[-74.0219421,40.2025206],[-74.0219272,40.202517],[-74.0199852,40.2020558],[-74.0199469,40.2020467],[-74.0199446,40.2020462],[-74.0196779,40.2019829],[-74.0212629,40.1974973],[-74.0228291,40.1930643],[-74.0235771,40.1918243],[-74.0241365,40.1902703],[-74.024137,40.1902704],[-74.0243134,40.1903337],[-74.0244728,40.1904951],[-74.0248594,40.1906563],[-74.0250792,40.1908022],[-74.025046,40.1908947],[-74.0250461,40.1908965],[-74.0250466,40.1909128],[-74.0250502,40.1909299],[-74.0250475,40.1909518],[-74.0250424,40.1909737],[-74.0250284,40.1909935],[-74.025025,40.1910006],[-74.0250141,40.1910405],[-74.0250015,40.1910801],[-74.0249874,40.1911193],[-74.0249717,40.1911582],[-74.0249742,40.1911766],[-74.0249815,40.1911873],[-74.0249863,40.1912011],[-74.0249894,40.1912212],[-74.0249877,40.1912337],[-74.024981,40.1912532],[-74.0249809,40.1912613],[-74.0249833,40.1912764],[-74.0249873,40.1912871],[-74.0249946,40.191299],[-74.0250052,40.1913072],[-74.025011,40.191315],[-74.0250199,40.191327],[-74.0250402,40.1913472],[-74.0250573,40.1913604],[-74.025076,40.1913749],[-74.0250907,40.1913831],[-74.0251233,40.1914021],[-74.0251437,40.1914154],[-74.025169,40.1914255],[-74.0251845,40.1914343],[-74.0252082,40.1914426],[-74.025227,40.1914489],[-74.0252482,40.1914534],[-74.0252956,40.191463],[-74.025311,40.1914675],[-74.0253246,40.1914715],[-74.0253516,40.1914735],[-74.0253729,40.1914767],[-74.0253966,40.1914831],[-74.0254137,40.1914901],[-74.0254308,40.1915002],[-74.025443,40.1915071],[-74.0254578,40.1915097],[-74.0254794,40.1915155],[-74.0254815,40.1915161],[-74.025497,40.1915193],[-74.0255092,40.1915225],[-74.0255329,40.1915332],[-74.0255607,40.1915453],[-74.025577,40.1915547],[-74.0255974,40.1915617],[-74.025617,40.1915693],[-74.0256403,40.1915773],[-74.0256447,40.1915789],[-74.0256786,40.1915899],[-74.0257129,40.1916001],[-74.0257415,40.1916109],[-74.025775,40.1916179],[-74.0257979,40.1916255],[-74.0258048,40.1916281],[-74.0258199,40.1916338],[-74.0258419,40.191642],[-74.0258779,40.1916528],[-74.025904,40.1916668],[-74.0259432,40.1916813],[-74.0259657,40.1916889],[-74.0259677,40.1916896],[-74.0259766,40.191694],[-74.025993,40.1916941],[-74.0260167,40.1916992],[-74.0260448,40.1917064],[-74.0260824,40.1917191],[-74.0261045,40.1917261],[-74.0261192,40.1917267],[-74.0261331,40.1917308],[-74.0261453,40.1917344],[-74.0261788,40.1917464],[-74.0262124,40.1917575],[-74.026227,40.1917623],[-74.0262613,40.1917763],[-74.0262882,40.1917889],[-74.0262933,40.1917913],[-74.0263094,40.191799],[-74.0263306,40.1918073],[-74.0263519,40.1918136],[-74.0263755,40.1918225],[-74.0264098,40.1918365],[-74.0264319,40.1918478],[-74.026451,40.1918595],[-74.0264562,40.1918627],[-74.0264582,40.1918639],[-74.0264966,40.1918841],[-74.0265357,40.1919044],[-74.0265667,40.1919196],[-74.0265945,40.1919329],[-74.0266052,40.1919373],[-74.0266206,40.1919436],[-74.0266548,40.1919651],[-74.0266728,40.1919721],[-74.0267242,40.1919942],[-74.026756,40.19201],[-74.0267606,40.1920118],[-74.0267743,40.1920169],[-74.0267815,40.1920197],[-74.0267872,40.1920209],[-74.026949,40.1921185],[-74.0275169,40.1922675],[-74.0276085,40.1923149],[-74.0283537,40.1924825],[-74.0284447,40.1925343],[-74.028633,40.1926238],[-74.0288426,40.1927088],[-74.0291223,40.1927847],[-74.0292804,40.192825],[-74.0293733,40.1928312],[-74.0293875,40.1928283],[-74.0294831,40.1928083],[-74.0295158,40.1927914],[-74.0295503,40.1927736],[-74.0295963,40.192741],[-74.029642,40.1927366],[-74.0296694,40.1927367],[-74.0297149,40.1927626],[-74.0297642,40.1927938],[-74.0299302,40.1928989],[-74.0300364,40.1929601],[-74.0301701,40.193019],[-74.0304309,40.1931766],[-74.0308498,40.1934002],[-74.0310047,40.1934686],[-74.0311444,40.1935206],[-74.0312355,40.1935606],[-74.0312845,40.1935903],[-74.0313613,40.1936696],[-74.0315267,40.1938362],[-74.0313527,40.1940216],[-74.031339,40.1940677],[-74.0313366,40.1941042],[-74.0313557,40.1941607],[-74.0313901,40.194199],[-74.0314203,40.1942124],[-74.0314593,40.1941927],[-74.0314811,40.1941795],[-74.0314962,40.1941795],[-74.0315457,40.1942262],[-74.0316037,40.1942862],[-74.0316184,40.1943133],[-74.0316272,40.1943294],[-74.0316269,40.1943653],[-74.0316269,40.1943725],[-74.0316273,40.1944638],[-74.0316339,40.1944989],[-74.0316357,40.1945086],[-74.031657,40.1945568],[-74.0316914,40.1945918],[-74.0317322,40.1946268],[-74.0317589,40.194655],[-74.0317623,40.1946585],[-74.0317729,40.1946884],[-74.0317789,40.1947614],[-74.0317959,40.1948112],[-74.0318346,40.1948462],[-74.0318711,40.1948763],[-74.0318924,40.1949361],[-74.0319128,40.1950503],[-74.0319291,40.1950922],[-74.0319591,40.1951354],[-74.0320279,40.1951988],[-74.0320931,40.1952493],[-74.0321097,40.1952622],[-74.03217,40.1952989],[-74.0322131,40.1953289],[-74.0322168,40.195333],[-74.0322647,40.1953856],[-74.0323674,40.1955419],[-74.0325134,40.1957084],[-74.0327895,40.1959214],[-74.0328503,40.195962],[-74.0330044,40.1960406],[-74.0330432,40.1960578],[-74.0330799,40.1960741],[-74.033134,40.1960826],[-74.0332009,40.1961061],[-74.0335133,40.1962998],[-74.033592,40.1963433],[-74.033661,40.1963784],[-74.0337127,40.1963985],[-74.0337709,40.196432],[-74.0338355,40.1964803],[-74.0339044,40.196537],[-74.0339582,40.1965704],[-74.0340097,40.1965868],[-74.0340424,40.1965973],[-74.0341697,40.1966492],[-74.0343271,40.1967328],[-74.0344435,40.1968046],[-74.0344774,40.1968304],[-74.0345403,40.196878],[-74.0346155,40.1969596],[-74.0346674,40.1970469],[-74.0347195,40.1971861],[-74.0347706,40.197273],[-74.0348427,40.1973469],[-74.0348604,40.197365],[-74.0349214,40.1974247],[-74.0350431,40.1975664],[-74.0351684,40.1976685],[-74.0353406,40.1977682],[-74.0354018,40.1977932],[-74.0354792,40.1978035],[-74.0355598,40.1978211],[-74.0356242,40.197861],[-74.0356755,40.1979083],[-74.0357367,40.1979457],[-74.0358742,40.1979784],[-74.035885,40.197981],[-74.0360787,40.198004],[-74.0363075,40.1980232],[-74.0363886,40.19803],[-74.0364706,40.198026],[-74.0366665,40.1980163],[-74.0367926,40.1979945],[-74.0369413,40.1979753],[-74.0371708,40.1979589],[-74.037206,40.197959],[-74.0373355,40.1979595],[-74.0374744,40.1979601],[-74.0377267,40.1979091],[-74.0378522,40.1978662],[-74.0380382,40.1978298],[-74.0380679,40.197846],[-74.0383604,40.1978199],[-74.0385318,40.1977946],[-74.0387363,40.1977657],[-74.03889,40.1977255],[-74.0390844,40.197647],[-74.0393305,40.1975476],[-74.0394762,40.1975073],[-74.039604,40.1974744],[-74.0397527,40.1974601],[-74.0399326,40.1974177],[-74.0400623,40.1972942],[-74.0401011,40.1972819],[-74.0401431,40.1972796],[-74.0401981,40.1972774],[-74.0402919,40.1972555],[-74.0403761,40.1972162],[-74.0404442,40.1971867],[-74.0404959,40.1971745],[-74.0405379,40.1971747],[-74.0405897,40.1971699],[-74.0406836,40.1971307],[-74.0407807,40.1970964],[-74.0408809,40.1970918],[-74.0410652,40.1970703],[-74.0412107,40.1970386],[-74.0413207,40.1970118],[-74.0413566,40.1970153],[-74.0413884,40.1969985],[-74.0414425,40.1969872],[-74.0415005,40.1969646],[-74.0415322,40.1969519],[-74.0415863,40.1969506],[-74.0416404,40.1969551],[-74.0416684,40.1969707],[-74.0417216,40.1970943],[-74.0417214,40.197097],[-74.0417045,40.197127],[-74.0416745,40.197144],[-74.0416334,40.1971596],[-74.0415867,40.1971737],[-74.0415288,40.1971878],[-74.0414616,40.1971957],[-74.0413289,40.1972422],[-74.0412188,40.1972765],[-74.0410531,40.1973619],[-74.0409984,40.1973945],[-74.0409401,40.1974116],[-74.0408949,40.1974114],[-74.0408692,40.197394],[-74.0408207,40.1973888],[-74.0407561,40.1973911],[-74.0405879,40.1974325],[-74.0402934,40.1975056],[-74.0400991,40.1975816],[-74.0399499,40.1976677],[-74.039872,40.1977269],[-74.0397548,40.1978651],[-74.0396538,40.197996],[-74.0395948,40.1981171],[-74.0395394,40.1981912],[-74.0394646,40.1982702],[-74.0394187,40.1983567],[-74.039402,40.1984508],[-74.0393775,40.1984928],[-74.0393351,40.1985521],[-74.0393348,40.1985892],[-74.0393443,40.1986215],[-74.0393861,40.1986464],[-74.0394376,40.1986739],[-74.0394503,40.1987061],[-74.0394436,40.1987432],[-74.039424,40.1987803],[-74.0393786,40.1988049],[-74.039304,40.1988368],[-74.039239,40.198896],[-74.0392129,40.1989355],[-74.0392224,40.1989678],[-74.0392449,40.1989926],[-74.0392738,40.1990051],[-74.0393255,40.1990053],[-74.0393707,40.1990179],[-74.0393931,40.1990452],[-74.0394345,40.1991296],[-74.0394988,40.199172],[-74.0396212,40.1992319],[-74.0396999,40.1992608],[-74.0397372,40.1992745],[-74.0398015,40.1993119],[-74.0398174,40.1993256],[-74.0399396,40.1994313],[-74.0400105,40.1994663],[-74.040133,40.1995039],[-74.0401668,40.1995099],[-74.040262,40.1995267],[-74.0403233,40.1995369],[-74.040349,40.1995543],[-74.0403875,40.1995991],[-74.0404562,40.1996607],[-74.0405208,40.1997185],[-74.0406394,40.1998552],[-74.0407289,40.2000972],[-74.0407818,40.2005512],[-74.0407804,40.2006118],[-74.0409786,40.2008351],[-74.040989,40.2008469],[-74.0410021,40.2008587],[-74.0410168,40.2008701],[-74.0410315,40.2008807],[-74.041053,40.200897],[-74.0410761,40.2009129],[-74.0410992,40.2009264],[-74.0411212,40.2009358],[-74.0411486,40.2009432],[-74.041167,40.2009478],[-74.0411844,40.2009523],[-74.0412181,40.200961],[-74.0412492,40.2009688],[-74.0412797,40.2009726],[-74.0413108,40.2009768],[-74.0413298,40.2009801],[-74.0413483,40.2009831],[-74.0413767,40.2009909],[-74.0414029,40.2010044],[-74.041426,40.2010227],[-74.0414444,40.2010369],[-74.0414622,40.2010484],[-74.0414827,40.2010562],[-74.0415085,40.2010636],[-74.0415285,40.2010681],[-74.0415401,40.201069],[-74.0415607,40.2010658],[-74.0415776,40.2010607],[-74.0415983,40.2010527],[-74.0416227,40.2010415],[-74.0416451,40.201032],[-74.0416465,40.2010315],[-74.0416703,40.2010243],[-74.0416962,40.2010184],[-74.0417137,40.2010136],[-74.0417306,40.2010072],[-74.0417576,40.200994],[-74.0417725,40.2009856],[-74.0417995,40.2009728],[-74.0418197,40.2009631],[-74.041827,40.2009596],[-74.0418514,40.2009471],[-74.0418805,40.2009351],[-74.0419139,40.2009244],[-74.0419451,40.2009164],[-74.0419763,40.2009093],[-74.0419764,40.2009093],[-74.0420037,40.2009042],[-74.0420254,40.2009019],[-74.042047,40.2009012],[-74.0420692,40.2009013],[-74.0420913,40.2009022],[-74.0421119,40.2009051],[-74.0421382,40.2009101],[-74.0421662,40.2009143],[-74.0421813,40.200918],[-74.0421883,40.2009197],[-74.0422104,40.2009255],[-74.042232,40.2009312],[-74.0422583,40.2009403],[-74.0422746,40.200946],[-74.0422904,40.200953],[-74.0423166,40.2009673],[-74.0423334,40.2009787],[-74.0423528,40.2009929],[-74.0423722,40.2010052],[-74.0423886,40.2010109],[-74.0424086,40.2010138],[-74.0424281,40.2010156],[-74.0424545,40.2010149],[-74.0424756,40.2010105],[-74.0424983,40.2010082],[-74.042521,40.2010079],[-74.0425469,40.2010064],[-74.0425738,40.2010005],[-74.0425998,40.2009925],[-74.0426209,40.2009854],[-74.042641,40.2009782],[-74.0426606,40.200971],[-74.0426792,40.2009634],[-74.0427025,40.2009538],[-74.0427221,40.2009434],[-74.0427406,40.2009321],[-74.0427571,40.2009233],[-74.0427746,40.2009149],[-74.0427989,40.2009057],[-74.0428211,40.2009005],[-74.0428275,40.2009018],[-74.0428416,40.2008924],[-74.0428526,40.2008779],[-74.0428579,40.2008642],[-74.0428631,40.2008484],[-74.0428662,40.2008342],[-74.042873,40.200821],[-74.0428798,40.2008073],[-74.042891,40.2007888],[-74.0429048,40.2007731],[-74.042917,40.2007629],[-74.0429591,40.2007625],[-74.0431172,40.2007922],[-74.0432438,40.200817],[-74.0433768,40.2008273],[-74.0434719,40.2008131],[-74.0435927,40.2007601],[-74.0436697,40.2007154],[-74.0436973,40.200699],[-74.0437219,40.2006855],[-74.0437456,40.2006758],[-74.0437682,40.2006699],[-74.0437937,40.2006662],[-74.0438163,40.2006671],[-74.0438339,40.2006731],[-74.0438555,40.2006838],[-74.0438739,40.2007034],[-74.0438837,40.200717],[-74.0438884,40.2007479],[-74.0438941,40.200775],[-74.0439057,40.2007976],[-74.0439134,40.2008187],[-74.0439291,40.2008293],[-74.0439585,40.2008355],[-74.0439781,40.2008371],[-74.0439977,40.2008356],[-74.0440135,40.2008267],[-74.0440392,40.2008057],[-74.0440589,40.2007877],[-74.0440767,40.2007787],[-74.0440963,40.2007773],[-74.044112,40.2007789],[-74.0441354,40.2007985],[-74.0441608,40.2008227],[-74.0441803,40.2008409],[-74.044196,40.2008469],[-74.0442175,40.2008516],[-74.0442411,40.2008501],[-74.0442627,40.2008442],[-74.0442922,40.2008383],[-74.0443295,40.2008369],[-74.044353,40.2008431],[-74.0443745,40.2008552],[-74.0443842,40.2008718],[-74.0443919,40.2008959],[-74.0444152,40.2009351],[-74.0444386,40.2009668],[-74.0444639,40.200994],[-74.0444776,40.2010016],[-74.0445051,40.2010092],[-74.0445345,40.2010124],[-74.044558,40.2010125],[-74.0445718,40.2010095],[-74.0445816,40.2010035],[-74.0445836,40.2009994],[-74.0445866,40.2009918],[-74.0445902,40.2009797],[-74.0445932,40.2009658],[-74.0445974,40.2009506],[-74.0446021,40.2009421],[-74.0446074,40.2009341],[-74.0446157,40.2009283],[-74.0446233,40.200926],[-74.0446437,40.2009248],[-74.0446706,40.2009231],[-74.0447051,40.2009228],[-74.0447355,40.2009229],[-74.0447676,40.2009239],[-74.0447834,40.2009276],[-74.044809,40.2009358],[-74.0448222,40.2009399],[-74.0448375,40.2009432],[-74.0448575,40.2009485],[-74.0448752,40.2009526],[-74.0448933,40.2009592],[-74.0449076,40.2009674],[-74.0449214,40.2009762],[-74.0449313,40.2009876],[-74.0449564,40.2010196],[-74.0449688,40.2010365],[-74.0449888,40.2010549],[-74.0450078,40.2010689],[-74.0450259,40.2010778],[-74.045045,40.2010823],[-74.0450746,40.2010839],[-74.0451109,40.2010847],[-74.0451365,40.2010872],[-74.0451537,40.2010914],[-74.0451663,40.201097],[-74.0451799,40.2011089],[-74.0451834,40.2011138],[-74.0451898,40.2011187],[-74.0452006,40.2011243],[-74.0452078,40.2011257],[-74.0452214,40.201125],[-74.0452314,40.2011272],[-74.0452405,40.2011293],[-74.0452467,40.2011335],[-74.0452548,40.2011391],[-74.0452602,40.2011474],[-74.0452637,40.2011634],[-74.0452663,40.2011857],[-74.0452706,40.2012054],[-74.0452811,40.2012412],[-74.0452917,40.2012727],[-74.0452945,40.2012787],[-74.0452993,40.2012832],[-74.0453138,40.2012914],[-74.0453369,40.2013011],[-74.0453629,40.2013146],[-74.0453899,40.201331],[-74.0454034,40.201334],[-74.0454257,40.2013356],[-74.0454721,40.2013328],[-74.0454864,40.2013338],[-74.0455226,40.2013409],[-74.0455823,40.2013592],[-74.045622,40.201376],[-74.0456708,40.201397],[-74.0457249,40.2014348],[-74.0457621,40.2014634],[-74.0458287,40.2014993],[-74.0459314,40.2015722],[-74.0459747,40.2016237],[-74.0460253,40.2016729],[-74.0460744,40.2017143],[-74.0460975,40.2017456],[-74.0461233,40.201797],[-74.0461462,40.201845],[-74.0461779,40.2018908],[-74.0462038,40.2019367],[-74.0462269,40.2019624],[-74.0462369,40.2019836],[-74.0462656,40.2020325],[-74.0462855,40.202053],[-74.046343,40.20209],[-74.0464537,40.2021358],[-74.0465377,40.2021732],[-74.0466484,40.2022203],[-74.0467502,40.2022619],[-74.0468378,40.2022925],[-74.0468932,40.2023064],[-74.046972,40.2023164],[-74.0470329,40.2023139],[-74.0470705,40.202314],[-74.0471045,40.2023224],[-74.0471723,40.2023501],[-74.0472134,40.2023709],[-74.0472633,40.2024082],[-74.0473203,40.2024523],[-74.0473739,40.2024855],[-74.047456,40.2025243],[-74.0476131,40.2026032],[-74.0477239,40.2026462],[-74.0478666,40.202725],[-74.0479451,40.202772],[-74.0479825,40.202812],[-74.0480055,40.2028478],[-74.0480536,40.2028947],[-74.048116,40.2029403],[-74.0481659,40.2029707],[-74.0481963,40.2029873],[-74.048282,40.2030233],[-74.0483963,40.2030773],[-74.0484784,40.2031161],[-74.0485569,40.203159],[-74.0486194,40.2031922],[-74.0486837,40.2032185],[-74.0487337,40.2032393],[-74.0487641,40.2032559],[-74.0488033,40.2032835],[-74.0488551,40.2033126],[-74.0489033,40.2033361],[-74.0489926,40.2033736],[-74.0490605,40.2033917],[-74.0491213,40.2034043],[-74.0492037,40.2034087],[-74.0492757,40.2034049],[-74.0493007,40.2034036],[-74.0493358,40.2034025],[-74.0493703,40.2034024],[-74.0494041,40.2034034],[-74.0494373,40.2034053],[-74.0494699,40.2034082],[-74.0495018,40.2034121],[-74.0495331,40.203417],[-74.0495637,40.2034229],[-74.0495937,40.2034298],[-74.0496231,40.2034377],[-74.0496518,40.2034466],[-74.0496798,40.2034564],[-74.0497073,40.2034673],[-74.0497341,40.2034792],[-74.0497602,40.203492],[-74.0497857,40.2035059],[-74.0498056,40.2035169],[-74.0498156,40.2035239],[-74.0498217,40.20353],[-74.0498262,40.2035372],[-74.0498291,40.2035455],[-74.0498307,40.203555],[-74.0498309,40.2035636],[-74.0498302,40.2035737],[-74.0498252,40.2036075],[-74.0498239,40.2036196],[-74.0498237,40.2036308],[-74.0498249,40.2036404],[-74.0498286,40.2036562],[-74.0498332,40.203672],[-74.0498388,40.2036877],[-74.0498454,40.2037033],[-74.049853,40.2037188],[-74.0498615,40.2037343],[-74.049871,40.2037498],[-74.0498815,40.2037652],[-74.0498929,40.2037805],[-74.0499054,40.2037959],[-74.0499188,40.2038112],[-74.0499332,40.2038264],[-74.0499486,40.2038417],[-74.049965,40.2038569],[-74.0499825,40.2038722],[-74.050001,40.2038875],[-74.0500197,40.2039021],[-74.0500394,40.2039169],[-74.0500601,40.2039316],[-74.0500818,40.2039465],[-74.0501046,40.2039615],[-74.0501286,40.2039766],[-74.0501802,40.2040076],[-74.050234,40.2040379],[-74.0502946,40.2040704],[-74.0503598,40.204104],[-74.0504707,40.2041599],[-74.0504991,40.204174],[-74.0505283,40.204188],[-74.0505582,40.2042018],[-74.0505889,40.2042154],[-74.0506113,40.2042248],[-74.0506352,40.204234],[-74.0506608,40.204243],[-74.0506887,40.2042522],[-74.0507406,40.2042678],[-74.0508637,40.2043026],[-74.050895,40.204312],[-74.050923,40.2043211],[-74.0509504,40.2043306],[-74.0509758,40.2043403],[-74.0509996,40.2043502],[-74.0510219,40.2043604],[-74.0510732,40.2043838],[-74.0511019,40.2043975],[-74.0511241,40.2044095],[-74.0511339,40.2044156],[-74.0511428,40.2044216],[-74.0511509,40.2044277],[-74.0511583,40.2044339],[-74.0511672,40.2044431],[-74.0511771,40.2044565],[-74.0511938,40.2044836],[-74.0512011,40.2044943],[-74.0512096,40.2045048],[-74.0512187,40.2045132],[-74.0512282,40.2045204],[-74.051239,40.2045277],[-74.0512512,40.2045351],[-74.0512652,40.204543],[-74.0512725,40.2045465],[-74.0512807,40.2045496],[-74.0512898,40.2045525],[-74.0513001,40.204555],[-74.0513204,40.2045588],[-74.0513695,40.204566],[-74.0513818,40.2045684],[-74.0513923,40.204571],[-74.0514028,40.2045744],[-74.0514117,40.2045783],[-74.0514192,40.2045828],[-74.0514254,40.2045879],[-74.0514293,40.2045924],[-74.0514343,40.2046],[-74.051439,40.204609],[-74.0514433,40.2046196],[-74.0514474,40.2046321],[-74.051449,40.2046385],[-74.0514499,40.204645],[-74.0514501,40.2046516],[-74.0514497,40.2046584],[-74.0514487,40.2046653],[-74.051447,40.2046725],[-74.0514447,40.2046798],[-74.0514417,40.2046875],[-74.0514354,40.2047006],[-74.0514271,40.2047152],[-74.0513941,40.2047651],[-74.0513823,40.2047847],[-74.0513775,40.2047937],[-74.0513731,40.2048034],[-74.0513696,40.2048125],[-74.0513677,40.2048187],[-74.0513556,40.2048592],[-74.0513529,40.2048705],[-74.0513512,40.2048805],[-74.0513504,40.2048895],[-74.0513505,40.2048979],[-74.0513517,40.2049075],[-74.051354,40.2049177],[-74.0513577,40.2049288],[-74.0513629,40.2049412],[-74.051385,40.2049864],[-74.0513998,40.2050184],[-74.0514111,40.2050418],[-74.051422,40.2050628],[-74.0514327,40.2050816],[-74.0514438,40.2050995],[-74.0514551,40.205116],[-74.0514669,40.2051313],[-74.0514791,40.2051454],[-74.051494,40.2051603],[-74.0515124,40.2051759],[-74.0515322,40.2051909],[-74.0515866,40.20523],[-74.0516021,40.2052421],[-74.0516152,40.2052535],[-74.0516414,40.2052787],[-74.0516671,40.2053061],[-74.0516924,40.2053359],[-74.051718,40.2053687],[-74.0517405,40.2053996],[-74.0517646,40.2054347],[-74.0518353,40.2055432],[-74.0518568,40.2055756],[-74.0518748,40.2056007],[-74.051919,40.2056577],[-74.0519292,40.2056719],[-74.0519379,40.2056849],[-74.0519476,40.2057012],[-74.0519554,40.2057167],[-74.0519615,40.2057317],[-74.0519658,40.2057463],[-74.0519697,40.2057668],[-74.0519719,40.2057898],[-74.0519724,40.2058126],[-74.0519719,40.205841],[-74.0519699,40.2058708],[-74.0519661,40.2059009],[-74.0519603,40.2059312],[-74.0519527,40.2059612],[-74.051946,40.2059832],[-74.0519382,40.206005],[-74.0519294,40.2060267],[-74.0519197,40.2060481],[-74.0519089,40.2060694],[-74.0518971,40.2060904],[-74.0518844,40.2061113],[-74.0518706,40.206132],[-74.0518103,40.2061303],[-74.0516281,40.2061252],[-74.0512318,40.2061308],[-74.05077,40.2061647],[-74.050475,40.2061894],[-74.0504559,40.206191],[-74.0500982,40.2062336],[-74.0495571,40.2062923],[-74.0485863,40.2064386],[-74.0472685,40.2066049],[-74.0465379,40.2067059],[-74.0454787,40.2068519],[-74.0449898,40.2069172],[-74.0444941,40.2069838],[-74.0435934,40.2071089],[-74.0430376,40.207184],[-74.0421358,40.2073069],[-74.0418949,40.2072486],[-74.041745,40.2072123],[-74.0400313,40.2067978],[-74.0399928,40.2067885],[-74.039899,40.2067658],[-74.0389578,40.2065382],[-74.0387868,40.2064968],[-74.0384183,40.2064077],[-74.0381062,40.2063322],[-74.0380391,40.2063159],[-74.0380244,40.2063124],[-74.0379704,40.2062993],[-74.0379526,40.206295],[-74.0373746,40.2061552],[-74.0373571,40.206151],[-74.0372719,40.2061304],[-74.037085,40.2061165]]]}}
